STARLINK-5368           
1 54840U 22177W   25249.90267154 -.00000572  00000+0 -27307-4 0  9994
2 54840  43.0021  51.5744 0000869 272.5481  87.5262 15.02544217149310
STARLINK-4659           
1 54841U 22177X   25249.18362105  .00001050  00000+0  92778-4 0  9991
2 54841  43.0063  55.6412 0001894 264.2150  95.8477 15.02535165149204
STARLINK-5387           
1 54842U 22177Y   25249.76306309 -.00000139  00000+0  47999-5 0  9994
2 54842  43.0039  52.2485 0001299 275.4641  84.6053 15.02529480149297
STARLINK-5304           
1 54843U 22177Z   25249.44287538  .00000153  00000+0  26373-4 0  9999
2 54843  43.0035  54.1474 0001308 273.5073  86.5619 15.02534061149247
STARLINK-5388           
1 54844U 22177AA  25249.75861551 -.00000086  00000+0  87055-5 0  9998
2 54844  43.0044  52.1942 0001415 271.2364  88.8316 15.02536173149293
STARLINK-5082           
1 54845U 22177AB  25249.76638425  .00000131  00000+0  24738-4 0  9990
2 54845  43.0027  52.2718 0001112 273.7929  86.2786 15.02538858149290
STARLINK-5360           
1 54846U 22177AC  25249.89267044 -.00016731  00000+0 -12242-2 0  9990
2 54846  43.0039  51.5022 0001497 244.6082 115.4606 15.02603156149310
STARLINK-5061           
1 54847U 22177AD  25249.85336062  .00001949  00000+0  15928-3 0  9992
2 54847  43.0050  26.0537 0001263 276.5889  83.4810 15.02540245149604
STARLINK-5432           
1 54848U 22177AE  25249.76010475 -.00002341  00000+0 -15831-3 0  9992
2 54848  43.0044  40.0761 0001472 275.4108  84.6567 15.02519687149436
STARLINK-5434           
1 54849U 22177AF  25249.91668981  .00537714  00000+0  27952-2 0  9992
2 54849  43.0003  18.6028 0002987 324.3702 211.7238 15.78693229  5993
STARLINK-5087           
1 54850U 22177AG  25249.68918361  .00000741  00000+0  69918-4 0  9993
2 54850  43.0026  40.4040 0001274 276.4526  83.6171 15.02537304149423
STARLINK-5084           
1 54851U 22177AH  25249.75899329 -.00000296  00000+0 -68296-5 0  9990
2 54851  43.0045  40.0665 0001110 266.1500  93.9215 15.02532285149438
STARLINK-5418           
1 54852U 22177AJ  25249.74900508 -.00003090  00000+0 -21364-3 0  9990
2 54852  43.0039  39.9911 0001169 268.8770  91.1939 15.02553086149430
STARLINK-5427           
1 54853U 22177AK  25249.75233031  .00001179  00000+0  10236-3 0  9992
2 54853  43.0038  40.0184 0001370 264.1255  95.9432 15.02533224149438
STARLINK-5416           
1 54855U 22177AM  25249.87862267  .00001218  00000+0  10519-3 0  9994
2 54855  43.0046  39.2444 0001075 281.6443  78.4278 15.02541009149459
STARLINK-5086           
1 54856U 22177AN  25249.72569244  .00003391  00000+0  26594-3 0  9992
2 54856  43.0010  39.8148 0001167 255.5276 104.5437 15.02541108149430
