[{"OBJECT_NAME":"STARLINK-5368","OBJECT_ID":"2022-177W","EPOCH":"2025-09-06T21:39:50.821056","MEAN_MOTION":15.02544217,"ECCENTRICITY":8.697e-5,"INCLINATION":43.0021,"RA_OF_ASC_NODE":51.5744,"ARG_OF_PERICENTER":272.5481,"MEAN_ANOMALY":87.5262,"EPHEMERIS_TYPE":0,"CLASSIFICATION_TYPE":"U","NORAD_CAT_ID":54840,"ELEMENT_SET_NO":999,"REV_AT_EPOCH":14931,"BSTAR":-2.730684e-5,"MEAN_MOTION_DOT":-5.72e-6,"MEAN_MOTION_DDOT":0},{"OBJECT_NAME":"STARLINK-4659","OBJECT_ID":"2022-177X","EPOCH":"2025-09-06T04:24:24.858720","MEAN_MOTION":15.02535165,"ECCENTRICITY":0.00018948,"INCLINATION":43.0063,"RA_OF_ASC_NODE":55.6412,"ARG_OF_PERICENTER":264.215,"MEAN_ANOMALY":95.8477,"EPHEMERIS_TYPE":0,"CLASSIFICATION_TYPE":"U","NORAD_CAT_ID":54841,"ELEMENT_SET_NO":999,"REV_AT_EPOCH":14920,"BSTAR":9.2778296e-5,"MEAN_MOTION_DOT":1.05e-5,"MEAN_MOTION_DDOT":0},{"OBJECT_NAME":"STARLINK-5387","OBJECT_ID":"2022-177Y","EPOCH":"2025-09-06T18:18:48.650976","MEAN_MOTION":15.0252948,"ECCENTRICITY":0.00012993,"INCLINATION":43.0039,"RA_OF_ASC_NODE":52.2485,"ARG_OF_PERICENTER":275.4641,"MEAN_ANOMALY":84.6053,"EPHEMERIS_TYPE":0,"CLASSIFICATION_TYPE":"U","NORAD_CAT_ID":54842,"ELEMENT_SET_NO":999,"REV_AT_EPOCH":14929,"BSTAR":4.799852e-6,"MEAN_MOTION_DOT":-1.39e-6,"MEAN_MOTION_DDOT":0},{"OBJECT_NAME":"STARLINK-5304","OBJECT_ID":"2022-177Z","EPOCH":"2025-09-06T10:37:44.432832","MEAN_MOTION":15.02534061,"ECCENTRICITY":0.00013085,"INCLINATION":43.0035,"RA_OF_ASC_NODE":54.1474,"ARG_OF_PERICENTER":273.5073,"MEAN_ANOMALY":86.5619,"EPHEMERIS_TYPE":0,"CLASSIFICATION_TYPE":"U","NORAD_CAT_ID":54843,"ELEMENT_SET_NO":999,"REV_AT_EPOCH":14924,"BSTAR":2.637342e-5,"MEAN_MOTION_DOT":1.53e-6,"MEAN_MOTION_DDOT":0},{"OBJECT_NAME":"STARLINK-5388","OBJECT_ID":"2022-177AA","EPOCH":"2025-09-06T18:12:24.380064","MEAN_MOTION":15.02536173,"ECCENTRICITY":0.0001415,"INCLINATION":43.0044,"RA_OF_ASC_NODE":52.1942,"ARG_OF_PERICENTER":271.2364,"MEAN_ANOMALY":88.8316,"EPHEMERIS_TYPE":0,"CLASSIFICATION_TYPE":"U","NORAD_CAT_ID":54844,"ELEMENT_SET_NO":999,"REV_AT_EPOCH":14929,"BSTAR":8.705506e-6,"MEAN_MOTION_DOT":-8.6e-7,"MEAN_MOTION_DDOT":0},{"OBJECT_NAME":"STARLINK-5082","OBJECT_ID":"2022-177AB","EPOCH":"2025-09-06T18:23:35.599200","MEAN_MOTION":15.02538858,"ECCENTRICITY":0.00011128,"INCLINATION":43.0027,"RA_OF_ASC_NODE":52.2718,"ARG_OF_PERICENTER":273.7929,"MEAN_ANOMALY":86.2786,"EPHEMERIS_TYPE":0,"CLASSIFICATION_TYPE":"U","NORAD_CAT_ID":54845,"ELEMENT_SET_NO":999,"REV_AT_EPOCH":14929,"BSTAR":2.4738411e-5,"MEAN_MOTION_DOT":1.31e-6,"MEAN_MOTION_DDOT":0},{"OBJECT_NAME":"STARLINK-5360","OBJECT_ID":"2022-177AC","EPOCH":"2025-09-06T21:25:26.726016","MEAN_MOTION":15.02603156,"ECCENTRICITY":0.00014975,"INCLINATION":43.0039,"RA_OF_ASC_NODE":51.5022,"ARG_OF_PERICENTER":244.6082,"MEAN_ANOMALY":115.4606,"EPHEMERIS_TYPE":0,"CLASSIFICATION_TYPE":"U","NORAD_CAT_ID":54846,"ELEMENT_SET_NO":999,"REV_AT_EPOCH":14931,"BSTAR":-0.0012242213,"MEAN_MOTION_DOT":-0.00016731,"MEAN_MOTION_DDOT":0},{"OBJECT_NAME":"STARLINK-5061","OBJECT_ID":"2022-177AD","EPOCH":"2025-09-06T20:28:50.357568","MEAN_MOTION":15.02540245,"ECCENTRICITY":0.00012636,"INCLINATION":43.005,"RA_OF_ASC_NODE":26.0537,"ARG_OF_PERICENTER":276.5889,"MEAN_ANOMALY":83.481,"EPHEMERIS_TYPE":0,"CLASSIFICATION_TYPE":"U","NORAD_CAT_ID":54847,"ELEMENT_SET_NO":999,"REV_AT_EPOCH":14960,"BSTAR":0.00015928177,"MEAN_MOTION_DOT":1.949e-5,"MEAN_MOTION_DDOT":0},{"OBJECT_NAME":"STARLINK-5432","OBJECT_ID":"2022-177AE","EPOCH":"2025-09-06T18:14:33.050400","MEAN_MOTION":15.02519687,"ECCENTRICITY":0.00014721,"INCLINATION":43.0044,"RA_OF_ASC_NODE":40.0761,"ARG_OF_PERICENTER":275.4108,"MEAN_ANOMALY":84.6567,"EPHEMERIS_TYPE":0,"CLASSIFICATION_TYPE":"U","NORAD_CAT_ID":54848,"ELEMENT_SET_NO":999,"REV_AT_EPOCH":14943,"BSTAR":-0.00015831006,"MEAN_MOTION_DOT":-2.341e-5,"MEAN_MOTION_DDOT":0},{"OBJECT_NAME":"STARLINK-5434","OBJECT_ID":"2022-177AF","EPOCH":"2025-09-06T22:00:01.999584","MEAN_MOTION":15.78693229,"ECCENTRICITY":0.00029879,"INCLINATION":43.0003,"RA_OF_ASC_NODE":18.6028,"ARG_OF_PERICENTER":324.3702,"MEAN_ANOMALY":211.7238,"EPHEMERIS_TYPE":0,"CLASSIFICATION_TYPE":"U","NORAD_CAT_ID":54849,"ELEMENT_SET_NO":999,"REV_AT_EPOCH":599,"BSTAR":0.0027952408,"MEAN_MOTION_DOT":0.00537714,"MEAN_MOTION_DDOT":0},{"OBJECT_NAME":"STARLINK-5087","OBJECT_ID":"2022-177AG","EPOCH":"2025-09-06T16:32:25.463904","MEAN_MOTION":15.02537304,"ECCENTRICITY":0.00012746,"INCLINATION":43.0026,"RA_OF_ASC_NODE":40.404,"ARG_OF_PERICENTER":276.4526,"MEAN_ANOMALY":83.6171,"EPHEMERIS_TYPE":0,"CLASSIFICATION_TYPE":"U","NORAD_CAT_ID":54850,"ELEMENT_SET_NO":999,"REV_AT_EPOCH":14942,"BSTAR":6.9918364e-5,"MEAN_MOTION_DOT":7.41e-6,"MEAN_MOTION_DDOT":0},{"OBJECT_NAME":"STARLINK-5084","OBJECT_ID":"2022-177AH","EPOCH":"2025-09-06T18:12:57.020256","MEAN_MOTION":15.02532285,"ECCENTRICITY":0.00011109,"INCLINATION":43.0045,"RA_OF_ASC_NODE":40.0665,"ARG_OF_PERICENTER":266.15,"MEAN_ANOMALY":93.9215,"EPHEMERIS_TYPE":0,"CLASSIFICATION_TYPE":"U","NORAD_CAT_ID":54851,"ELEMENT_SET_NO":999,"REV_AT_EPOCH":14943,"BSTAR":-6.829592e-6,"MEAN_MOTION_DOT":-2.96e-6,"MEAN_MOTION_DDOT":0},{"OBJECT_NAME":"STARLINK-5418","OBJECT_ID":"2022-177AJ","EPOCH":"2025-09-06T17:58:34.038912","MEAN_MOTION":15.02553086,"ECCENTRICITY":0.00011694,"INCLINATION":43.0039,"RA_OF_ASC_NODE":39.9911,"ARG_OF_PERICENTER":268.877,"MEAN_ANOMALY":91.1939,"EPHEMERIS_TYPE":0,"CLASSIFICATION_TYPE":"U","NORAD_CAT_ID":54852,"ELEMENT_SET_NO":999,"REV_AT_EPOCH":14943,"BSTAR":-0.0002136414,"MEAN_MOTION_DOT":-3.09e-5,"MEAN_MOTION_DDOT":0},{"OBJECT_NAME":"STARLINK-5427","OBJECT_ID":"2022-177AK","EPOCH":"2025-09-06T18:03:21.338784","MEAN_MOTION":15.02533224,"ECCENTRICITY":0.00013701,"INCLINATION":43.0038,"RA_OF_ASC_NODE":40.0184,"ARG_OF_PERICENTER":264.1255,"MEAN_ANOMALY":95.9432,"EPHEMERIS_TYPE":0,"CLASSIFICATION_TYPE":"U","NORAD_CAT_ID":54853,"ELEMENT_SET_NO":999,"REV_AT_EPOCH":14943,"BSTAR":0.00010235657,"MEAN_MOTION_DOT":1.179e-5,"MEAN_MOTION_DDOT":0},{"OBJECT_NAME":"STARLINK-5416","OBJECT_ID":"2022-177AM","EPOCH":"2025-09-06T21:05:12.998688","MEAN_MOTION":15.02541009,"ECCENTRICITY":0.00010752,"INCLINATION":43.0046,"RA_OF_ASC_NODE":39.2444,"ARG_OF_PERICENTER":281.6443,"MEAN_ANOMALY":78.4278,"EPHEMERIS_TYPE":0,"CLASSIFICATION_TYPE":"U","NORAD_CAT_ID":54855,"ELEMENT_SET_NO":999,"REV_AT_EPOCH":14945,"BSTAR":0.00010518962,"MEAN_MOTION_DOT":1.218e-5,"MEAN_MOTION_DDOT":0},{"OBJECT_NAME":"STARLINK-5086","OBJECT_ID":"2022-177AN","EPOCH":"2025-09-06T17:24:59.826816","MEAN_MOTION":15.02541108,"ECCENTRICITY":0.00011674,"INCLINATION":43.001,"RA_OF_ASC_NODE":39.8148,"ARG_OF_PERICENTER":255.5276,"MEAN_ANOMALY":104.5437,"EPHEMERIS_TYPE":0,"CLASSIFICATION_TYPE":"U","NORAD_CAT_ID":54856,"ELEMENT_SET_NO":999,"REV_AT_EPOCH":14943,"BSTAR":0.00026594454,"MEAN_MOTION_DOT":3.391e-5,"MEAN_MOTION_DDOT":0}]
